[
  {
    "OBJECT_NAME": "STARLINK-32694",
    "OBJECT_ID": "25003H",
    "EPOCH": "2025-11-11T04:51:17.638272",
    "MEAN_MOTION": 15.2764853,
    "ECCENTRICITY": 0.0001512,
    "INCLINATION": 43.0,
    "RA_OF_ASC_NODE": 237.8524,
    "ARG_OF_PERICENTER": 273.1111,
    "MEAN_ANOMALY": 86.9567,
    "EPHEMERIS_TYPE": 0,
    "CLASSIFICATION_TYPE": "U",
    "NORAD_CAT_ID": 62494,
    "ELEMENT_SET_NO": 999,
    "REV_AT_EPOCH": 4855,
    "BSTAR": 0.0017458999999999999,
    "MEAN_MOTION_DOT": 0.00048196,
    "MEAN_MOTION_DDOT": 0.0,
    "TLE_LINE1": "1 62494U 25003H   25315.20228748  .00048196  00000+0  17459-2 0  9999",
    "TLE_LINE2": "2 62494  43.0000 237.8524 0001512 273.1111  86.9567 15.27648530 48554",
    "COMMENT": "Grouped by shell and plane from TLE"
  },
  {
    "OBJECT_NAME": "STARLINK-32708",
    "OBJECT_ID": "25003J",
    "EPOCH": "2025-11-11T04:03:23.733216",
    "MEAN_MOTION": 15.27644668,
    "ECCENTRICITY": 0.0001377,
    "INCLINATION": 43.0011,
    "RA_OF_ASC_NODE": 238.4638,
    "ARG_OF_PERICENTER": 266.9122,
    "MEAN_ANOMALY": 93.1572,
    "EPHEMERIS_TYPE": 0,
    "CLASSIFICATION_TYPE": "U",
    "NORAD_CAT_ID": 62495,
    "ELEMENT_SET_NO": 999,
    "REV_AT_EPOCH": 4842,
    "BSTAR": 0.0020403,
    "MEAN_MOTION_DOT": 0.00056425,
    "MEAN_MOTION_DDOT": 0.0,
    "TLE_LINE1": "1 62495U 25003J   25315.16902469  .00056425  00000+0  20403-2 0  9991",
    "TLE_LINE2": "2 62495  43.0011 238.4638 0001377 266.9122  93.1572 15.27644668 48421",
    "COMMENT": "Grouped by shell and plane from TLE"
  },
  {
    "OBJECT_NAME": "STARLINK-32718",
    "OBJECT_ID": "25003K",
    "EPOCH": "2025-11-11T04:45:44.449632",
    "MEAN_MOTION": 15.27639661,
    "ECCENTRICITY": 0.0001283,
    "INCLINATION": 42.9999,
    "RA_OF_ASC_NODE": 237.8267,
    "ARG_OF_PERICENTER": 275.3765,
    "MEAN_ANOMALY": 84.6941,
    "EPHEMERIS_TYPE": 0,
    "CLASSIFICATION_TYPE": "U",
    "NORAD_CAT_ID": 62496,
    "ELEMENT_SET_NO": 999,
    "REV_AT_EPOCH": 4843,
    "BSTAR": 0.0014999000000000002,
    "MEAN_MOTION_DOT": 0.00041319,
    "MEAN_MOTION_DDOT": 0.0,
    "TLE_LINE1": "1 62496U 25003K   25315.19843113  .00041319  00000+0  14999-2 0  9994",
    "TLE_LINE2": "2 62496  42.9999 237.8267 0001283 275.3765  84.6941 15.27639661 48432",
    "COMMENT": "Grouped by shell and plane from TLE"
  },
  {
    "OBJECT_NAME": "STARLINK-32729",
    "OBJECT_ID": "25003L",
    "EPOCH": "2025-11-11T03:22:41.324448",
    "MEAN_MOTION": 15.27620845,
    "ECCENTRICITY": 0.0001156,
    "INCLINATION": 42.9988,
    "RA_OF_ASC_NODE": 238.2446,
    "ARG_OF_PERICENTER": 272.6829,
    "MEAN_ANOMALY": 87.389,
    "EPHEMERIS_TYPE": 0,
    "CLASSIFICATION_TYPE": "U",
    "NORAD_CAT_ID": 62497,
    "ELEMENT_SET_NO": 999,
    "REV_AT_EPOCH": 4854,
    "BSTAR": 0.0009401,
    "MEAN_MOTION_DOT": 0.0002573,
    "MEAN_MOTION_DDOT": 0.0,
    "TLE_LINE1": "1 62497U 25003L   25315.14075607  .00025730  00000+0  94010-3 0  9997",
    "TLE_LINE2": "2 62497  42.9988 238.2446 0001156 272.6829  87.3890 15.27620845 48544",
    "COMMENT": "Grouped by shell and plane from TLE"
  },
  {
    "OBJECT_NAME": "STARLINK-32739",
    "OBJECT_ID": "25003M",
    "EPOCH": "2025-11-11T05:19:02.558496",
    "MEAN_MOTION": 15.27640358,
    "ECCENTRICITY": 0.0001352,
    "INCLINATION": 42.9993,
    "RA_OF_ASC_NODE": 237.991,
    "ARG_OF_PERICENTER": 263.3177,
    "MEAN_ANOMALY": 96.752,
    "EPHEMERIS_TYPE": 0,
    "CLASSIFICATION_TYPE": "U",
    "NORAD_CAT_ID": 62498,
    "ELEMENT_SET_NO": 999,
    "REV_AT_EPOCH": 4850,
    "BSTAR": 0.0019831,
    "MEAN_MOTION_DOT": 0.00054815,
    "MEAN_MOTION_DDOT": 0.0,
    "TLE_LINE1": "1 62498U 25003M   25315.22155739  .00054815  00000+0  19831-2 0  9995",
    "TLE_LINE2": "2 62498  42.9993 237.9910 0001352 263.3177  96.7520 15.27640358 48505",
    "COMMENT": "Grouped by shell and plane from TLE"
  },
  {
    "OBJECT_NAME": "STARLINK-32714",
    "OBJECT_ID": "25003N",
    "EPOCH": "2025-11-11T04:25:36.040224",
    "MEAN_MOTION": 15.27644774,
    "ECCENTRICITY": 0.0001336,
    "INCLINATION": 43.0018,
    "RA_OF_ASC_NODE": 238.5826,
    "ARG_OF_PERICENTER": 262.7775,
    "MEAN_ANOMALY": 97.2925,
    "EPHEMERIS_TYPE": 0,
    "CLASSIFICATION_TYPE": "U",
    "NORAD_CAT_ID": 62499,
    "ELEMENT_SET_NO": 999,
    "REV_AT_EPOCH": 4854,
    "BSTAR": 0.0017975,
    "MEAN_MOTION_DOT": 0.00049632,
    "MEAN_MOTION_DDOT": 0.0,
    "TLE_LINE1": "1 62499U 25003N   25315.18444491  .00049632  00000+0  17975-2 0  9995",
    "TLE_LINE2": "2 62499  43.0018 238.5826 0001336 262.7775  97.2925 15.27644774 48543",
    "COMMENT": "Grouped by shell and plane from TLE"
  },
  {
    "OBJECT_NAME": "STARLINK-32685",
    "OBJECT_ID": "25003P",
    "EPOCH": "2025-11-11T04:14:30.065568",
    "MEAN_MOTION": 15.27626433,
    "ECCENTRICITY": 0.0001272,
    "INCLINATION": 43.0013,
    "RA_OF_ASC_NODE": 238.5241,
    "ARG_OF_PERICENTER": 268.348,
    "MEAN_ANOMALY": 91.7225,
    "EPHEMERIS_TYPE": 0,
    "CLASSIFICATION_TYPE": "U",
    "NORAD_CAT_ID": 62500,
    "ELEMENT_SET_NO": 999,
    "REV_AT_EPOCH": 4849,
    "BSTAR": 0.001234,
    "MEAN_MOTION_DOT": 0.00033899,
    "MEAN_MOTION_DDOT": 0.0,
    "TLE_LINE1": "1 62500U 25003P   25315.17673687  .00033899  00000+0  12340-2 0  9997",
    "TLE_LINE2": "2 62500  43.0013 238.5241 0001272 268.3480  91.7225 15.27626433 48494",
    "COMMENT": "Grouped by shell and plane from TLE"
  },
  {
    "OBJECT_NAME": "STARLINK-32691",
    "OBJECT_ID": "25003Q",
    "EPOCH": "2025-11-11T03:43:02.230752",
    "MEAN_MOTION": 15.27622673,
    "ECCENTRICITY": 0.0001244,
    "INCLINATION": 42.9995,
    "RA_OF_ASC_NODE": 238.348,
    "ARG_OF_PERICENTER": 275.7598,
    "MEAN_ANOMALY": 84.3111,
    "EPHEMERIS_TYPE": 0,
    "CLASSIFICATION_TYPE": "U",
    "NORAD_CAT_ID": 62501,
    "ELEMENT_SET_NO": 999,
    "REV_AT_EPOCH": 4853,
    "BSTAR": 0.0019500000000000001,
    "MEAN_MOTION_DOT": 0.00053861,
    "MEAN_MOTION_DDOT": 0.0,
    "TLE_LINE1": "1 62501U 25003Q   25315.15488693  .00053861  00000+0  19500-2 0  9993",
    "TLE_LINE2": "2 62501  42.9995 238.3480 0001244 275.7598  84.3111 15.27622673 48535",
    "COMMENT": "Grouped by shell and plane from TLE"
  },
  {
    "OBJECT_NAME": "STARLINK-32788",
    "OBJECT_ID": "25003R",
    "EPOCH": "2025-11-11T05:11:38.645664",
    "MEAN_MOTION": 15.27643872,
    "ECCENTRICITY": 0.0001907,
    "INCLINATION": 42.9996,
    "RA_OF_ASC_NODE": 237.9523,
    "ARG_OF_PERICENTER": 271.4257,
    "MEAN_ANOMALY": 88.6376,
    "EPHEMERIS_TYPE": 0,
    "CLASSIFICATION_TYPE": "U",
    "NORAD_CAT_ID": 62502,
    "ELEMENT_SET_NO": 999,
    "REV_AT_EPOCH": 4843,
    "BSTAR": 0.0017230000000000001,
    "MEAN_MOTION_DOT": 0.00047552,
    "MEAN_MOTION_DDOT": 0.0,
    "TLE_LINE1": "1 62502U 25003R   25315.21641951  .00047552  00000+0  17230-2 0  9997",
    "TLE_LINE2": "2 62502  42.9996 237.9523 0001907 271.4257  88.6376 15.27643872 48434",
    "COMMENT": "Grouped by shell and plane from TLE"
  },
  {
    "OBJECT_NAME": "STARLINK-32768",
    "OBJECT_ID": "25003S",
    "EPOCH": "2025-11-11T08:00:03.000384",
    "MEAN_MOTION": 15.27529745,
    "ECCENTRICITY": 0.0001429,
    "INCLINATION": 43.0006,
    "RA_OF_ASC_NODE": 237.0747,
    "ARG_OF_PERICENTER": 279.8844,
    "MEAN_ANOMALY": 96.0258,
    "EPHEMERIS_TYPE": 0,
    "CLASSIFICATION_TYPE": "U",
    "NORAD_CAT_ID": 62503,
    "ELEMENT_SET_NO": 999,
    "REV_AT_EPOCH": 573,
    "BSTAR": 0.0019751,
    "MEAN_MOTION_DOT": 0.00054405,
    "MEAN_MOTION_DDOT": 0.0,
    "TLE_LINE1": "1 62503U 25003S   25315.33336806  .00054405  00000+0  19751-2 0  9996",
    "TLE_LINE2": "2 62503  43.0006 237.0747 0001429 279.8844  96.0258 15.27529745  5731",
    "COMMENT": "Grouped by shell and plane from TLE"
  },
  {
    "OBJECT_NAME": "STARLINK-32792",
    "OBJECT_ID": "25003T",
    "EPOCH": "2025-11-11T04:34:38.531136",
    "MEAN_MOTION": 15.27648541,
    "ECCENTRICITY": 0.0001507,
    "INCLINATION": 43.0014,
    "RA_OF_ASC_NODE": 237.7645,
    "ARG_OF_PERICENTER": 272.9067,
    "MEAN_ANOMALY": 87.1612,
    "EPHEMERIS_TYPE": 0,
    "CLASSIFICATION_TYPE": "U",
    "NORAD_CAT_ID": 62504,
    "ELEMENT_SET_NO": 999,
    "REV_AT_EPOCH": 4843,
    "BSTAR": 0.0019725000000000003,
    "MEAN_MOTION_DOT": 0.00054532,
    "MEAN_MOTION_DDOT": 0.0,
    "TLE_LINE1": "1 62504U 25003T   25315.19072374  .00054532  00000+0  19725-2 0  9990",
    "TLE_LINE2": "2 62504  43.0014 237.7645 0001507 272.9067  87.1612 15.27648541 48438",
    "COMMENT": "Grouped by shell and plane from TLE"
  },
  {
    "OBJECT_NAME": "STARLINK-32725",
    "OBJECT_ID": "25003U",
    "EPOCH": "2025-11-11T04:36:28.588320",
    "MEAN_MOTION": 15.27603781,
    "ECCENTRICITY": 0.0002288,
    "INCLINATION": 43.0026,
    "RA_OF_ASC_NODE": 237.7618,
    "ARG_OF_PERICENTER": 264.2661,
    "MEAN_ANOMALY": 95.793,
    "EPHEMERIS_TYPE": 0,
    "CLASSIFICATION_TYPE": "U",
    "NORAD_CAT_ID": 62505,
    "ELEMENT_SET_NO": 999,
    "REV_AT_EPOCH": 4843,
    "BSTAR": 0.0013699,
    "MEAN_MOTION_DOT": 0.00037655,
    "MEAN_MOTION_DDOT": 0.0,
    "TLE_LINE1": "1 62505U 25003U   25315.19199755  .00037655  00000+0  13699-2 0  9995",
    "TLE_LINE2": "2 62505  43.0026 237.7618 0002288 264.2661  95.7930 15.27603781 48438",
    "COMMENT": "Grouped by shell and plane from TLE"
  },
  {
    "OBJECT_NAME": "STARLINK-32679",
    "OBJECT_ID": "25003W",
    "EPOCH": "2025-11-11T04:31:08.415840",
    "MEAN_MOTION": 15.27638623,
    "ECCENTRICITY": 0.000187,
    "INCLINATION": 43.002,
    "RA_OF_ASC_NODE": 238.5702,
    "ARG_OF_PERICENTER": 277.7241,
    "MEAN_ANOMALY": 82.3399,
    "EPHEMERIS_TYPE": 0,
    "CLASSIFICATION_TYPE": "U",
    "NORAD_CAT_ID": 62507,
    "ELEMENT_SET_NO": 999,
    "REV_AT_EPOCH": 4854,
    "BSTAR": 0.0013705,
    "MEAN_MOTION_DOT": 0.00037711,
    "MEAN_MOTION_DDOT": 0.0,
    "TLE_LINE1": "1 62507U 25003W   25315.18829185  .00037711  00000+0  13705-2 0  9994",
    "TLE_LINE2": "2 62507  43.0020 238.5702 0001870 277.7241  82.3399 15.27638623 48542",
    "COMMENT": "Grouped by shell and plane from TLE"
  }
]